{
  "type": "FeatureCollection",
  "features": [
    {
      "type": "Feature",
      "properties": {
        "norad_id": 35045,
        "name": "COSMOS 2251 DEB",
        "group": "cosmos-2251-debris",
        "lat": -71.0920365177187,
        "lon": -95.05851517136064,
        "alt_km": 766.2124319407858,
        "timestamp": "2025-12-27T15:27:11.590337+00:00",
        "meta_object_name": "COSMOS 2251 DEB",
        "meta_object_id": "1993-036AHJ",
        "meta_epoch": "2025-12-24T19:20:26.125152",
        "meta_mean_motion": 14.0041252,
        "meta_eccentricity": 0.01839955,
        "meta_inclination": 73.7191,
        "meta_ra_of_asc_node": 31.3925,
        "meta_arg_of_pericenter": 271.7742,
        "meta_mean_anomaly": 86.2325,
        "meta_ephemeris_type": 0,
        "meta_classification_type": "U",
        "meta_norad_cat_id": 35045,
        "meta_element_set_no": 999,
        "meta_rev_at_epoch": 84812,
        "meta_bstar": 0.0006276669,
        "meta_mean_motion_dot": 1.049e-05,
        "meta_mean_motion_ddot": 0,
        "tle_line1": "1 35045U 93036AHJ 25358.80585793  .00001049  00000+0  62767-3 0  9990",
        "tle_line2": "2 35045  73.7191  31.3925 0183995 271.7742  86.2325 14.00412520848123"
      },
      "geometry": {
        "type": "Point",
        "coordinates": [
          -95.05851517136064,
          -71.0920365177187
        ]
      }
    },
    {
      "type": "Feature",
      "properties": {
        "norad_id": 35060,
        "name": "COSMOS 2251 DEB",
        "group": "cosmos-2251-debris",
        "lat": -34.3142273872768,
        "lon": 47.99303965444729,
        "alt_km": 757.4152827396547,
        "timestamp": "2025-12-27T15:27:11.590347+00:00",
        "meta_object_name": "COSMOS 2251 DEB",
        "meta_object_id": "1993-036AHP",
        "meta_epoch": "2025-12-23T23:50:58.864704",
        "meta_mean_motion": 14.416228,
        "meta_eccentricity": 0.00187381,
        "meta_inclination": 74.0364,
        "meta_ra_of_asc_node": 223.4863,
        "meta_arg_of_pericenter": 306.8479,
        "meta_mean_anomaly": 53.0958,
        "meta_ephemeris_type": 0,
        "meta_classification_type": "U",
        "meta_norad_cat_id": 35060,
        "meta_element_set_no": 999,
        "meta_rev_at_epoch": 87404,
        "meta_bstar": 0.0002601881,
        "meta_mean_motion_dot": 8.22e-06,
        "meta_mean_motion_ddot": 0,
        "tle_line1": "1 35060U 93036AHP 25357.99373686  .00000822  00000+0  26019-3 0  9990",
        "tle_line2": "2 35060  74.0364 223.4863 0018738 306.8479  53.0958 14.41622800874043"
      },
      "geometry": {
        "type": "Point",
        "coordinates": [
          47.99303965444729,
          -34.3142273872768
        ]
      }
    },
    {
      "type": "Feature",
      "properties": {
        "norad_id": 35061,
        "name": "COSMOS 2251 DEB",
        "group": "cosmos-2251-debris",
        "lat": 63.663479125332756,
        "lon": -47.75775885318162,
        "alt_km": 641.1380697084096,
        "timestamp": "2025-12-27T15:27:11.590357+00:00",
        "meta_object_name": "COSMOS 2251 DEB",
        "meta_object_id": "1993-036AHQ",
        "meta_epoch": "2025-12-27T03:41:39.156288",
        "meta_mean_motion": 14.67952318,
        "meta_eccentricity": 0.0039843,
        "meta_inclination": 74.046,
        "meta_ra_of_asc_node": 277.8862,
        "meta_arg_of_pericenter": 24.8529,
        "meta_mean_anomaly": 335.4548,
        "meta_ephemeris_type": 0,
        "meta_classification_type": "U",
        "meta_norad_cat_id": 35061,
        "meta_element_set_no": 999,
        "meta_rev_at_epoch": 88786,
        "meta_bstar": 0.00093118493,
        "meta_mean_motion_dot": 5.368e-05,
        "meta_mean_motion_ddot": 0,
        "tle_line1": "1 35061U 93036AHQ 25361.15392542  .00005368  00000+0  93118-3 0  9990",
        "tle_line2": "2 35061  74.0460 277.8862 0039843  24.8529 335.4548 14.67952318887860"
      },
      "geometry": {
        "type": "Point",
        "coordinates": [
          -47.75775885318162,
          63.663479125332756
        ]
      }
    },
    {
      "type": "Feature",
      "properties": {
        "norad_id": 35062,
        "name": "COSMOS 2251 DEB",
        "group": "cosmos-2251-debris",
        "lat": -54.893659515183685,
        "lon": -89.52232068279149,
        "alt_km": 912.0997631375021,
        "timestamp": "2025-12-27T15:27:11.590368+00:00",
        "meta_object_name": "COSMOS 2251 DEB",
        "meta_object_id": "1993-036AHR",
        "meta_epoch": "2025-12-27T04:13:13.663776",
        "meta_mean_motion": 14.23044847,
        "meta_eccentricity": 0.01258352,
        "meta_inclination": 74.0787,
        "meta_ra_of_asc_node": 67.3599,
        "meta_arg_of_pericenter": 62.5897,
        "meta_mean_anomaly": 298.7984,
        "meta_ephemeris_type": 0,
        "meta_classification_type": "U",
        "meta_norad_cat_id": 35062,
        "meta_element_set_no": 999,
        "meta_rev_at_epoch": 85704,
        "meta_bstar": 0.0017191343,
        "meta_mean_motion_dot": 4.182e-05,
        "meta_mean_motion_ddot": 0,
        "tle_line1": "1 35062U 93036AHR 25361.17585259  .00004182  00000+0  17191-2 0  9991",
        "tle_line2": "2 35062  74.0787  67.3599 0125835  62.5897 298.7984 14.23044847857049"
      },
      "geometry": {
        "type": "Point",
        "coordinates": [
          -89.52232068279149,
          -54.893659515183685
        ]
      }
    },
    {
      "type": "Feature",
      "properties": {
        "norad_id": 35065,
        "name": "COSMOS 2251 DEB",
        "group": "cosmos-2251-debris",
        "lat": 60.81162605072294,
        "lon": -162.62029301603116,
        "alt_km": 743.6424761325698,
        "timestamp": "2025-12-27T15:27:11.590378+00:00",
        "meta_object_name": "COSMOS 2251 DEB",
        "meta_object_id": "1993-036AHU",
        "meta_epoch": "2025-12-26T10:55:13.836864",
        "meta_mean_motion": 14.45764248,
        "meta_eccentricity": 0.0020358,
        "meta_inclination": 74.0178,
        "meta_ra_of_asc_node": 168.7315,
        "meta_arg_of_pericenter": 291.8587,
        "meta_mean_anomaly": 68.0405,
        "meta_ephemeris_type": 0,
        "meta_classification_type": "U",
        "meta_norad_cat_id": 35065,
        "meta_element_set_no": 999,
        "meta_rev_at_epoch": 68549,
        "meta_bstar": 0.00042895,
        "meta_mean_motion_dot": 1.498e-05,
        "meta_mean_motion_ddot": 0,
        "tle_line1": "1 35065U 93036AHU 25360.45502126  .00001498  00000+0  42895-3 0  9993",
        "tle_line2": "2 35065  74.0178 168.7315 0020358 291.8587  68.0405 14.45764248685497"
      },
      "geometry": {
        "type": "Point",
        "coordinates": [
          -162.62029301603116,
          60.81162605072294
        ]
      }
    },
    {
      "type": "Feature",
      "properties": {
        "norad_id": 35071,
        "name": "COSMOS 2251 DEB",
        "group": "cosmos-2251-debris",
        "lat": 31.901562869316386,
        "lon": -47.552468078722065,
        "alt_km": 570.5775996300799,
        "timestamp": "2025-12-27T15:27:11.590402+00:00",
        "meta_object_name": "COSMOS 2251 DEB",
        "meta_object_id": "1993-036AJA",
        "meta_epoch": "2025-12-27T02:02:07.791360",
        "meta_mean_motion": 15.0373425,
        "meta_eccentricity": 0.00685362,
        "meta_inclination": 73.9327,
        "meta_ra_of_asc_node": 143.9325,
        "meta_arg_of_pericenter": 36.008,
        "meta_mean_anomaly": 324.5696,
        "meta_ephemeris_type": 0,
        "meta_classification_type": "U",
        "meta_norad_cat_id": 35071,
        "meta_element_set_no": 999,
        "meta_rev_at_epoch": 67752,
        "meta_bstar": 0.00090039747,
        "meta_mean_motion_dot": 0.00012992,
        "meta_mean_motion_ddot": 0,
        "tle_line1": "1 35071U 93036AJA 25361.08481240  .00012992  00000+0  90040-3 0  9999",
        "tle_line2": "2 35071  73.9327 143.9325 0068536  36.0080 324.5696 15.03734250677523"
      },
      "geometry": {
        "type": "Point",
        "coordinates": [
          -47.552468078722065,
          31.901562869316386
        ]
      }
    },
    {
      "type": "Feature",
      "properties": {
        "norad_id": 35073,
        "name": "COSMOS 2251 DEB",
        "group": "cosmos-2251-debris",
        "lat": 53.84195483048842,
        "lon": 97.04647772760833,
        "alt_km": 554.5950856496238,
        "timestamp": "2025-12-27T15:27:11.590413+00:00",
        "meta_object_name": "COSMOS 2251 DEB",
        "meta_object_id": "1993-036AJC",
        "meta_epoch": "2025-12-26T13:19:39.449280",
        "meta_mean_motion": 15.01663707,
        "meta_eccentricity": 0.0011423,
        "meta_inclination": 74.0005,
        "meta_ra_of_asc_node": 302.3878,
        "meta_arg_of_pericenter": 45.8819,
        "meta_mean_anomaly": 314.3306,
        "meta_ephemeris_type": 0,
        "meta_classification_type": "U",
        "meta_norad_cat_id": 35073,
        "meta_element_set_no": 999,
        "meta_rev_at_epoch": 67686,
        "meta_bstar": 0.0034127,
        "meta_mean_motion_dot": 0.00044647,
        "meta_mean_motion_ddot": 0,
        "tle_line1": "1 35073U 93036AJC 25360.55531770  .00044647  00000+0  34127-2 0  9991",
        "tle_line2": "2 35073  74.0005 302.3878 0011423  45.8819 314.3306 15.01663707676862"
      },
      "geometry": {
        "type": "Point",
        "coordinates": [
          97.04647772760833,
          53.84195483048842
        ]
      }
    }
  ]
}